[{"OBJECT_NAME":"STARLINK-31710","OBJECT_ID":"2024-062E","EPOCH":"2026-03-09T17:10:18.837120","MEAN_MOTION":15.30191972,"ECCENTRICITY":0.00012283,"INCLINATION":53.1602,"RA_OF_ASC_NODE":255.6643,"ARG_OF_PERICENTER":96.7544,"MEAN_ANOMALY":263.3597,"EPHEMERIS_TYPE":0,"CLASSIFICATION_TYPE":"U","NORAD_CAT_ID":59378,"ELEMENT_SET_NO":999,"REV_AT_EPOCH":10963,"BSTAR":4.6990441e-5,"MEAN_MOTION_DOT":1.032e-5,"MEAN_MOTION_DDOT":0},{"OBJECT_NAME":"OBJECT N","OBJECT_ID":"2019-093N","EPOCH":"2026-03-09T21:41:56.087232","MEAN_MOTION":15.29897693,"ECCENTRICITY":0.0006278,"INCLINATION":98.0505,"RA_OF_ASC_NODE":226.9456,"ARG_OF_PERICENTER":33.3806,"MEAN_ANOMALY":326.7828,"EPHEMERIS_TYPE":0,"CLASSIFICATION_TYPE":"U","NORAD_CAT_ID":44891,"ELEMENT_SET_NO":999,"REV_AT_EPOCH":33957,"BSTAR":0.0010567776,"MEAN_MOTION_DOT":0.00030617,"MEAN_MOTION_DDOT":0}]
